{"type": "FeatureCollection", "features": [{"type": "Feature", "properties": {"name": "Panama"}, "geometry": {"type": "MultiPolygon", "coordinates": [[[[-77.393066, 8.644678], [-77.478516, 8.498437], [-77.407275, 8.427246], [-77.385889, 8.35166], [-77.345508, 8.269531], [-77.282617, 8.187061], [-77.195996, 7.972461], [-77.215967, 7.93252], [-77.282959, 7.908154], [-77.345605, 7.836523], [-77.362744, 7.749072], [-77.350781, 7.705859], [-77.538281, 7.56626], [-77.586572, 7.543066], [-77.618604, 7.564551], [-77.706348, 7.691211], [-77.732031, 7.710938], [-77.761914, 7.698828], [-77.76875, 7.668066], [-77.743896, 7.536963], [-77.764697, 7.483691], [-77.82832, 7.442822], [-77.901172, 7.229346], [-78.170117, 7.543799], [-78.378223, 7.899902], [-78.421582, 8.060986], [-78.31543, 8.066943], [-78.287354, 8.091797], [-78.254883, 8.138623], [-78.281201, 8.247559], [-78.180029, 8.330273], [-78.141895, 8.386084], [-78.113867, 8.37959], [-78.047754, 8.284766], [-77.833643, 8.151172], [-77.760547, 8.133252], [-77.85293, 8.216211], [-78.0125, 8.325391], [-78.099463, 8.496973], [-78.223047, 8.396631], [-78.251123, 8.421436], [-78.256104, 8.453711], [-78.350146, 8.46001], [-78.399219, 8.505664], [-78.369385, 8.404932], [-78.379297, 8.358594], [-78.409863, 8.355322], [-78.469434, 8.44668], [-78.514062, 8.628174], [-78.620898, 8.713721], [-78.710205, 8.75293], [-78.769678, 8.811084], [-78.848242, 8.842187], [-78.955176, 8.93252], [-79.086377, 8.997168], [-79.24668, 9.020068], [-79.441504, 9.006006], [-79.50708, 8.970068], [-79.572363, 8.903271], [-79.687451, 8.850977], [-79.758545, 8.711572], [-79.815918, 8.639209], [-79.750439, 8.595508], [-80.125781, 8.349658], [-80.200098, 8.313965], [-80.368701, 8.28877], [-80.458984, 8.213867], [-80.458105, 8.077051], [-80.365576, 7.997998], [-80.260937, 7.85166], [-80.075195, 7.667041], [-80.040039, 7.599805], [-80.01123, 7.500049], [-80.110596, 7.433447], [-80.287305, 7.425635], [-80.348242, 7.385693], [-80.372949, 7.324658], [-80.438867, 7.274951], [-80.666699, 7.225684], [-80.845557, 7.220068], [-80.901221, 7.277148], [-80.914648, 7.4375], [-81.035107, 7.711133], [-81.063867, 7.899756], [-81.093945, 7.876318], [-81.157812, 7.854395], [-81.179395, 7.80752], [-81.195459, 7.668408], [-81.219043, 7.620947], [-81.268408, 7.625488], [-81.36958, 7.675293], [-81.50415, 7.721191], [-81.675684, 8.015918], [-81.727637, 8.137549], [-81.860254, 8.16543], [-81.973291, 8.215088], [-82.096729, 8.222754], [-82.159863, 8.194824], [-82.224316, 8.230371], [-82.235449, 8.311035], [-82.364844, 8.274854], [-82.530957, 8.287402], [-82.679541, 8.321973], [-82.781152, 8.303516], [-82.866113, 8.246338], [-82.854346, 8.099512], [-82.879346, 8.070654], [-82.883301, 8.130566], [-82.912891, 8.199609], [-82.948437, 8.256836], [-83.023389, 8.316016], [-83.027344, 8.337744], [-82.861621, 8.453516], [-82.844775, 8.489355], [-82.855713, 8.635303], [-82.917041, 8.740332], [-82.881982, 8.805322], [-82.727832, 8.916064], [-82.741162, 8.951709], [-82.783057, 8.990283], [-82.881348, 9.055859], [-82.940332, 9.060107], [-82.939844, 9.44917], [-82.860156, 9.511475], [-82.843994, 9.570801], [-82.801025, 9.591797], [-82.644092, 9.505859], [-82.586523, 9.538818], [-82.563574, 9.57666], [-82.370801, 9.428564], [-82.363184, 9.381934], [-82.375391, 9.337256], [-82.339746, 9.20918], [-82.272461, 9.190625], [-82.204883, 9.21543], [-82.188135, 9.191748], [-82.235449, 9.14165], [-82.244189, 9.031494], [-82.133301, 8.980078], [-82.077881, 8.934863], [-81.894141, 8.956104], [-81.826416, 8.944092], [-81.780225, 8.957227], [-81.831494, 9.045605], [-81.900146, 9.111035], [-81.894482, 9.14043], [-81.842383, 9.118701], [-81.802588, 9.074121], [-81.712207, 9.018945], [-81.545605, 8.827002], [-81.354785, 8.780566], [-81.20376, 8.786719], [-81.063086, 8.812646], [-80.838672, 8.887207], [-80.676465, 9.021875], [-80.546875, 9.081934], [-80.1271, 9.209912], [-79.977979, 9.343701], [-79.855078, 9.378076], [-79.723096, 9.479297], [-79.652246, 9.558203], [-79.577295, 9.597852], [-79.355469, 9.569238], [-79.211621, 9.531934], [-79.112256, 9.536768], [-79.016699, 9.510449], [-78.975, 9.452979], [-78.931641, 9.428467], [-78.696924, 9.434766], [-78.504346, 9.406299], [-78.082764, 9.236279], [-77.830811, 9.068115], [-77.697217, 8.889453], [-77.374219, 8.658301], [-77.393066, 8.644678]]], [[[-78.918115, 8.231934], [-78.964941, 8.32627], [-78.960596, 8.43584], [-78.883252, 8.460254], [-78.856152, 8.448242], [-78.83916, 8.3479], [-78.853223, 8.302441], [-78.89834, 8.274268], [-78.918115, 8.231934]]], [[[-81.658105, 7.327539], [-81.770117, 7.370361], [-81.852051, 7.45332], [-81.856934, 7.507666], [-81.812158, 7.592383], [-81.752295, 7.621631], [-81.72876, 7.621191], [-81.671436, 7.523438], [-81.710449, 7.485547], [-81.694727, 7.425], [-81.613428, 7.380176], [-81.603271, 7.332812], [-81.658105, 7.327539]]], [[[-82.244434, 9.334082], [-82.321729, 9.418115], [-82.259424, 9.430273], [-82.233496, 9.380713], [-82.244434, 9.334082]]], [[[-79.110352, 8.209814], [-79.127539, 8.251855], [-79.085303, 8.295801], [-79.06543, 8.254199], [-79.110352, 8.209814]]]]}}, {"type": "Feature", "properties": {"name": "Nicaragua"}, "geometry": {"type": "Polygon", "coordinates": [[[-83.185352, 14.956396], [-83.215918, 14.932373], [-83.279883, 14.812793], [-83.302002, 14.8021], [-83.306348, 14.890527], [-83.344385, 14.9021], [-83.389014, 14.870654], [-83.413721, 14.825342], [-83.374854, 14.766113], [-83.299219, 14.749023], [-83.187744, 14.340088], [-83.211719, 14.267139], [-83.280811, 14.153613], [-83.346582, 14.056982], [-83.412305, 13.996484], [-83.49375, 13.738818], [-83.567334, 13.320312], [-83.514453, 12.943945], [-83.541211, 12.596289], [-83.517969, 12.514111], [-83.510937, 12.411816], [-83.565234, 12.393408], [-83.595898, 12.396484], [-83.627197, 12.459326], [-83.623682, 12.514551], [-83.591211, 12.579346], [-83.578076, 12.667139], [-83.593359, 12.713086], [-83.625342, 12.612891], [-83.718359, 12.552637], [-83.754248, 12.501953], [-83.65127, 12.287061], [-83.669238, 12.227539], [-83.68042, 12.024316], [-83.715576, 12.057422], [-83.767187, 12.059277], [-83.769336, 11.931641], [-83.813184, 11.896387], [-83.828906, 11.861035], [-83.753369, 11.821289], [-83.70459, 11.824561], [-83.664307, 11.723877], [-83.651758, 11.642041], [-83.744971, 11.566504], [-83.829395, 11.428174], [-83.867871, 11.300049], [-83.831836, 11.130518], [-83.76792, 11.010254], [-83.714062, 10.933838], [-83.641992, 10.917236], [-83.658936, 10.836865], [-83.712939, 10.785889], [-83.811182, 10.743262], [-83.919287, 10.735352], [-84.096191, 10.775684], [-84.168359, 10.780371], [-84.196582, 10.801709], [-84.20498, 10.841309], [-84.255566, 10.900732], [-84.348291, 10.979883], [-84.401855, 10.974463], [-84.48916, 10.99165], [-84.63418, 11.045605], [-84.701172, 11.052197], [-84.90918, 10.945312], [-85.58418, 11.189453], [-85.621387, 11.184473], [-85.702637, 11.081543], [-85.744336, 11.062109], [-85.745215, 11.088574], [-85.828516, 11.19873], [-85.961133, 11.331348], [-86.468896, 11.738281], [-86.655518, 11.981543], [-86.755615, 12.156641], [-86.850977, 12.247754], [-87.125195, 12.434131], [-87.188428, 12.50835], [-87.460156, 12.757568], [-87.667529, 12.903564], [-87.670166, 12.965674], [-87.585059, 13.043311], [-87.543311, 13.039697], [-87.424365, 12.921143], [-87.389648, 12.920654], [-87.338574, 12.949951], [-87.337256, 12.979248], [-87.05918, 12.991455], [-87.009326, 13.007812], [-86.958887, 13.053711], [-86.933154, 13.117529], [-86.918213, 13.223584], [-86.873535, 13.266504], [-86.729297, 13.284375], [-86.710693, 13.313379], [-86.770605, 13.69873], [-86.758984, 13.746143], [-86.733643, 13.763477], [-86.610254, 13.774854], [-86.376953, 13.755664], [-86.331738, 13.770068], [-86.238232, 13.899463], [-86.151221, 13.99458], [-86.089258, 14.037207], [-86.040381, 14.050146], [-85.983789, 13.965674], [-85.786719, 13.844434], [-85.733936, 13.858691], [-85.731201, 13.931836], [-85.681934, 13.982568], [-85.579785, 14.028223], [-85.477051, 14.108691], [-85.373779, 14.223877], [-85.28418, 14.29165], [-85.20835, 14.311816], [-85.179492, 14.343311], [-85.197559, 14.385986], [-85.191504, 14.446631], [-85.161328, 14.525146], [-85.117285, 14.570605], [-85.059375, 14.582959], [-85.036523, 14.607666], [-85.048633, 14.644727], [-85.037354, 14.685547], [-84.985156, 14.752441], [-84.860449, 14.809766], [-84.78916, 14.790381], [-84.729785, 14.713379], [-84.645947, 14.661084], [-84.537646, 14.633398], [-84.453564, 14.643701], [-84.393652, 14.691748], [-84.339795, 14.706348], [-84.291943, 14.687354], [-84.26665, 14.698145], [-84.263965, 14.738525], [-84.239209, 14.747852], [-84.150781, 14.72041], [-84.114404, 14.731006], [-84.092969, 14.770898], [-84.06582, 14.786084], [-83.972266, 14.771094], [-83.867285, 14.794482], [-83.750928, 14.85625], [-83.673633, 14.883545], [-83.635498, 14.876416], [-83.589746, 14.907568], [-83.536523, 14.977002], [-83.415039, 15.008057], [-83.15752, 14.993066], [-83.185352, 14.956396]]]}}, {"type": "Feature", "properties": {"name": "Mexico"}, "geometry": {"type": "MultiPolygon", "coordinates": [[[[-92.485303, 18.664795], [-91.973779, 18.715869], [-91.880371, 18.637793], [-91.880469, 18.599658], [-91.942676, 18.563428], [-91.913574, 18.528516], [-91.802979, 18.470605], [-91.599707, 18.447168], [-91.533984, 18.456543], [-91.440479, 18.541846], [-91.275244, 18.624463], [-91.27876, 18.720654], [-91.308301, 18.773291], [-91.356299, 18.776562], [-91.36540222970686, 18.8], [-88.10351144337902, 18.8], [-88.196777, 18.719678], [-88.195312, 18.642627], [-88.295654, 18.472412], [-88.461279, 18.476758], [-88.522998, 18.445898], [-88.586182, 18.290527], [-88.806348, 17.965527], [-88.897803, 17.914551], [-89.050439, 17.999707], [-89.133545, 17.970801], [-89.162354, 17.901953], [-89.161475, 17.814844], [-90.98916, 17.816406], [-90.992969, 17.252441], [-91.409619, 17.255859], [-91.319189, 17.199805], [-91.22417, 17.112256], [-91.111865, 16.976172], [-90.97583, 16.867822], [-90.816016, 16.787109], [-90.710693, 16.708105], [-90.659961, 16.630908], [-90.634375, 16.565137], [-90.634082, 16.510742], [-90.575781, 16.467822], [-90.471094, 16.439551], [-90.416992, 16.391016], [-90.416992, 16.351318], [-90.450146, 16.261377], [-90.459863, 16.162354], [-90.447168, 16.072705], [-91.736572, 16.070166], [-92.187158, 15.320898], [-92.204248, 15.275], [-92.204346, 15.237695], [-92.074805, 15.074219], [-92.09873, 15.026758], [-92.144238, 15.001953], [-92.158545, 14.963574], [-92.155664, 14.901318], [-92.186377, 14.818359], [-92.159912, 14.691016], [-92.209033, 14.570996], [-92.235156, 14.54541], [-92.6, 14.913893708553516], [-92.6, 18.637690152555116], [-92.485303, 18.664795]]], [[[-87.653027, 18.798535], [-87.733545, 18.655029], [-87.761816, 18.446143], [-87.853223, 18.268994], [-87.881982, 18.273877], [-87.959668, 18.440869], [-88.039062, 18.483887], [-88.056445, 18.524463], [-88.011133, 18.726855], [-88.02458239564166, 18.8], [-87.653027, 18.798535]]], [[[-91.796143, 18.654199], [-91.816113, 18.675879], [-91.589111, 18.778027], [-91.550293, 18.773682], [-91.536719, 18.76001], [-91.654248, 18.711475], [-91.683691, 18.677344], [-91.796143, 18.654199]]]]}}, {"type": "Feature", "properties": {"name": "Honduras"}, "geometry": {"type": "MultiPolygon", "coordinates": [[[[-83.415039, 15.008057], [-83.536523, 14.977002], [-83.589746, 14.907568], [-83.635498, 14.876416], [-83.673633, 14.883545], [-83.750928, 14.85625], [-83.867285, 14.794482], [-83.972266, 14.771094], [-84.06582, 14.786084], [-84.092969, 14.770898], [-84.114404, 14.731006], [-84.150781, 14.72041], [-84.239209, 14.747852], [-84.263965, 14.738525], [-84.26665, 14.698145], [-84.291943, 14.687354], [-84.339795, 14.706348], [-84.393652, 14.691748], [-84.453564, 14.643701], [-84.537646, 14.633398], [-84.645947, 14.661084], [-84.729785, 14.713379], [-84.78916, 14.790381], [-84.860449, 14.809766], [-84.985156, 14.752441], [-85.037354, 14.685547], [-85.048633, 14.644727], [-85.036523, 14.607666], [-85.059375, 14.582959], [-85.117285, 14.570605], [-85.161328, 14.525146], [-85.191504, 14.446631], [-85.197559, 14.385986], [-85.179492, 14.343311], [-85.20835, 14.311816], [-85.28418, 14.29165], [-85.373779, 14.223877], [-85.477051, 14.108691], [-85.579785, 14.028223], [-85.681934, 13.982568], [-85.731201, 13.931836], [-85.733936, 13.858691], [-85.786719, 13.844434], [-85.983789, 13.965674], [-86.040381, 14.050146], [-86.089258, 14.037207], [-86.151221, 13.99458], [-86.238232, 13.899463], [-86.331738, 13.770068], [-86.376953, 13.755664], [-86.610254, 13.774854], [-86.733643, 13.763477], [-86.758984, 13.746143], [-86.770605, 13.69873], [-86.763525, 13.635254], [-86.710693, 13.313379], [-86.729297, 13.284375], [-86.873535, 13.266504], [-86.918213, 13.223584], [-86.933154, 13.117529], [-86.958887, 13.053711], [-87.009326, 13.007812], [-87.05918, 12.991455], [-87.337256, 12.979248], [-87.33252, 13.084717], [-87.412793, 13.127441], [-87.498389, 13.274902], [-87.485156, 13.310596], [-87.489111, 13.35293], [-87.602246, 13.385596], [-87.70835, 13.360059], [-87.814209, 13.39917], [-87.737012, 13.451367], [-87.731641, 13.483105], [-87.781885, 13.521387], [-87.715332, 13.812695], [-87.731445, 13.841064], [-87.802246, 13.88999], [-87.891992, 13.894971], [-87.991016, 13.879639], [-88.038721, 13.904639], [-88.080469, 13.960596], [-88.151025, 13.987354], [-88.276221, 13.942676], [-88.449121, 13.850977], [-88.482666, 13.854248], [-88.512549, 13.978955], [-88.707617, 14.03208], [-88.747363, 14.072266], [-88.845947, 14.124756], [-88.868311, 14.163672], [-89.000195, 14.252734], [-89.057129, 14.32915], [-89.120508, 14.370215], [-89.170117, 14.360303], [-89.362598, 14.416016], [-89.286719, 14.52998], [-89.171777, 14.606885], [-89.162207, 14.669238], [-89.222363, 14.866064], [-89.170312, 15.039893], [-89.142578, 15.072314], [-88.960986, 15.152441], [-88.22832, 15.729004], [-88.131104, 15.701025], [-88.05459, 15.764844], [-87.874951, 15.879346], [-87.701855, 15.910645], [-87.618164, 15.909863], [-87.486914, 15.790186], [-87.37749, 15.826465], [-87.285889, 15.834424], [-86.907227, 15.762354], [-86.757031, 15.794238], [-86.480811, 15.801074], [-86.356641, 15.783203], [-86.181201, 15.885156], [-86.068555, 15.905664], [-85.936279, 15.953418], [-85.953906, 16.002246], [-85.985645, 16.02417], [-85.783984, 16.002832], [-85.483691, 15.899512], [-85.163672, 15.918164], [-85.048242, 15.973975], [-84.97373, 15.989893], [-84.646094, 15.883594], [-84.559668, 15.802002], [-84.492285, 15.793945], [-84.440039, 15.812598], [-84.425977, 15.829492], [-84.490381, 15.847266], [-84.519629, 15.872754], [-84.261426, 15.822607], [-83.775488, 15.436865], [-83.765283, 15.405469], [-83.972803, 15.519629], [-84.082764, 15.510889], [-84.111328, 15.492432], [-84.095068, 15.400928], [-84.047949, 15.397607], [-84.013184, 15.414404], [-83.927441, 15.394043], [-83.80166, 15.289258], [-83.760449, 15.220361], [-83.715918, 15.219238], [-83.672168, 15.260742], [-83.589648, 15.265771], [-83.535937, 15.219385], [-83.497949, 15.222119], [-83.551074, 15.293994], [-83.676123, 15.36543], [-83.646387, 15.368408], [-83.369189, 15.23999], [-83.290869, 15.078906], [-83.15752, 14.993066], [-83.415039, 15.008057]]], [[[-86.580273, 16.300244], [-86.63042, 16.301758], [-86.556934, 16.362109], [-86.438281, 16.413867], [-86.337842, 16.439209], [-86.255518, 16.428223], [-86.419922, 16.378369], [-86.580273, 16.300244]]], [[[-85.947217, 16.403613], [-85.960986, 16.429688], [-85.924219, 16.483301], [-85.878223, 16.513965], [-85.833789, 16.510889], [-85.870947, 16.461523], [-85.947217, 16.403613]]]]}}, {"type": "Feature", "properties": {"name": "Guatemala"}, "geometry": {"type": "Polygon", "coordinates": [[[-92.209033, 14.570996], [-92.159912, 14.691016], [-92.186377, 14.818359], [-92.155664, 14.901318], [-92.158545, 14.963574], [-92.144238, 15.001953], [-92.09873, 15.026758], [-92.074805, 15.074219], [-92.204346, 15.237695], [-92.204248, 15.275], [-92.187158, 15.320898], [-91.736572, 16.070166], [-90.447168, 16.072705], [-90.459863, 16.162354], [-90.450146, 16.261377], [-90.416992, 16.351318], [-90.416992, 16.391016], [-90.471094, 16.439551], [-90.575781, 16.467822], [-90.634082, 16.510742], [-90.634375, 16.565137], [-90.659961, 16.630908], [-90.710693, 16.708105], [-90.816016, 16.787109], [-90.97583, 16.867822], [-91.111865, 16.976172], [-91.22417, 17.112256], [-91.319189, 17.199805], [-91.409619, 17.255859], [-90.992969, 17.252441], [-90.98916, 17.816406], [-89.161475, 17.814844], [-89.2375, 15.894434], [-88.894043, 15.890625], [-88.79834, 15.8625], [-88.708643, 15.806543], [-88.603369, 15.76416], [-88.53623, 15.849609], [-88.597998, 15.927344], [-88.593945, 15.950293], [-88.22832, 15.729004], [-88.960986, 15.152441], [-89.142578, 15.072314], [-89.170312, 15.039893], [-89.222363, 14.866064], [-89.162207, 14.669238], [-89.171777, 14.606885], [-89.286719, 14.52998], [-89.362598, 14.416016], [-89.418848, 14.431104], [-89.540527, 14.409912], [-89.573633, 14.390088], [-89.576953, 14.34707], [-89.547168, 14.24126], [-89.671289, 14.182715], [-89.749365, 14.077002], [-89.793701, 14.050098], [-89.872705, 14.045605], [-90.048145, 13.904053], [-90.104736, 13.834766], [-90.095215, 13.736523], [-90.479102, 13.900928], [-90.606934, 13.929004], [-91.146045, 13.925586], [-91.377344, 13.990186], [-91.640918, 14.114941], [-91.819092, 14.228223], [-92.235156, 14.54541], [-92.209033, 14.570996]]]}}, {"type": "Feature", "properties": {"name": "El Salvador"}, "geometry": {"type": "Polygon", "coordinates": [[[-89.337256, 14.411377], [-89.170117, 14.360303], [-89.120508, 14.370215], [-89.057129, 14.32915], [-89.000195, 14.252734], [-88.868311, 14.163672], [-88.845947, 14.124756], [-88.747363, 14.072266], [-88.707617, 14.03208], [-88.512549, 13.978955], [-88.482666, 13.854248], [-88.449121, 13.850977], [-88.276221, 13.942676], [-88.151025, 13.987354], [-88.080469, 13.960596], [-88.038721, 13.904639], [-87.991016, 13.879639], [-87.891992, 13.894971], [-87.802246, 13.88999], [-87.731445, 13.841064], [-87.715332, 13.812695], [-87.781885, 13.521387], [-87.731641, 13.483105], [-87.737012, 13.451367], [-87.838379, 13.385791], [-87.820703, 13.285156], [-87.930859, 13.180664], [-88.180664, 13.164014], [-88.417139, 13.213525], [-88.591553, 13.281055], [-88.685645, 13.281494], [-88.655859, 13.25918], [-88.581543, 13.244971], [-88.483887, 13.197168], [-88.512012, 13.183936], [-88.867041, 13.283252], [-89.277637, 13.478076], [-89.804199, 13.560107], [-89.970459, 13.683154], [-90.095215, 13.736523], [-90.104736, 13.834766], [-90.048145, 13.904053], [-89.872705, 14.045605], [-89.793701, 14.050098], [-89.749365, 14.077002], [-89.671289, 14.182715], [-89.547168, 14.24126], [-89.576953, 14.34707], [-89.573633, 14.390088], [-89.540527, 14.409912], [-89.418848, 14.431104], [-89.337256, 14.411377]]]}}, {"type": "Feature", "properties": {"name": "Costa Rica"}, "geometry": {"type": "Polygon", "coordinates": [[[-82.569238, 9.558203], [-82.644092, 9.505859], [-82.801025, 9.591797], [-82.843994, 9.570801], [-82.860156, 9.511475], [-82.939844, 9.44917], [-82.940332, 9.060107], [-82.881348, 9.055859], [-82.783057, 8.990283], [-82.741162, 8.951709], [-82.727832, 8.916064], [-82.881982, 8.805322], [-82.917041, 8.740332], [-82.855713, 8.635303], [-82.844775, 8.489355], [-82.861621, 8.453516], [-83.027344, 8.337744], [-83.023389, 8.316016], [-82.948437, 8.256836], [-82.912891, 8.199609], [-82.883301, 8.130566], [-82.879346, 8.070654], [-82.947266, 8.181738], [-83.041455, 8.287744], [-83.12334, 8.353076], [-83.12959, 8.505469], [-83.162402, 8.588184], [-83.285791, 8.664355], [-83.391406, 8.717725], [-83.469727, 8.706836], [-83.421777, 8.619238], [-83.297754, 8.506885], [-83.291504, 8.406006], [-83.54375, 8.44585], [-83.604736, 8.480322], [-83.734082, 8.614453], [-83.642187, 8.728906], [-83.613721, 8.804053], [-83.616162, 8.959814], [-83.637256, 9.035352], [-83.736914, 9.150293], [-83.895557, 9.276416], [-84.117871, 9.379443], [-84.222363, 9.4625], [-84.482666, 9.526172], [-84.581592, 9.568359], [-84.658887, 9.64668], [-84.670459, 9.702881], [-84.643066, 9.789404], [-84.714941, 9.899414], [-85.025049, 10.115723], [-85.198437, 10.195312], [-85.235645, 10.24209], [-85.263184, 10.256641], [-85.236523, 10.107373], [-85.160742, 10.017432], [-84.962793, 9.933447], [-84.90835, 9.88457], [-84.886426, 9.820947], [-85.00127, 9.699268], [-85.059717, 9.668311], [-85.077051, 9.601953], [-85.114502, 9.581787], [-85.314551, 9.810937], [-85.624854, 9.902441], [-85.681006, 9.958594], [-85.796484, 10.132861], [-85.849658, 10.292041], [-85.830615, 10.398145], [-85.703125, 10.563477], [-85.66333, 10.635449], [-85.667236, 10.74502], [-85.714844, 10.790576], [-85.908008, 10.897559], [-85.887402, 10.921289], [-85.752246, 10.985254], [-85.744336, 11.062109], [-85.702637, 11.081543], [-85.621387, 11.184473], [-85.58418, 11.189453], [-84.90918, 10.945312], [-84.701172, 11.052197], [-84.63418, 11.045605], [-84.48916, 10.99165], [-84.401855, 10.974463], [-84.348291, 10.979883], [-84.255566, 10.900732], [-84.20498, 10.841309], [-84.196582, 10.801709], [-84.168359, 10.780371], [-84.096191, 10.775684], [-83.919287, 10.735352], [-83.811182, 10.743262], [-83.712939, 10.785889], [-83.658936, 10.836865], [-83.641992, 10.917236], [-83.588184, 10.81499], [-83.575293, 10.734717], [-83.448242, 10.465918], [-83.346826, 10.315381], [-83.124609, 10.041602], [-83.028516, 9.99126], [-82.866309, 9.770947], [-82.810303, 9.73457], [-82.778418, 9.669531], [-82.610156, 9.616016], [-82.563574, 9.57666], [-82.569238, 9.558203]]]}}, {"type": "Feature", "properties": {"name": "Colombia"}, "geometry": {"type": "Polygon", "coordinates": [[[-77.602148, 6.837305], [-77.64585, 6.869629], [-77.680957, 6.9604], [-77.803711, 7.137256], [-77.901172, 7.229346], [-77.82832, 7.442822], [-77.764697, 7.483691], [-77.743896, 7.536963], [-77.76875, 7.668066], [-77.761914, 7.698828], [-77.732031, 7.710938], [-77.706348, 7.691211], [-77.618604, 7.564551], [-77.586572, 7.543066], [-77.538281, 7.56626], [-77.350781, 7.705859], [-77.362744, 7.749072], [-77.345605, 7.836523], [-77.282959, 7.908154], [-77.215967, 7.93252], [-77.195996, 7.972461], [-77.282617, 8.187061], [-77.345508, 8.269531], [-77.385889, 8.35166], [-77.407275, 8.427246], [-77.478516, 8.498437], [-77.44834, 8.565869], [-77.374219, 8.658301], [-77.344141, 8.636719], [-77.261572, 8.493701], [-77.130127, 8.400586], [-76.992285, 8.250342], [-76.93584, 8.146826], [-76.890967, 8.127979], [-76.851855, 8.090479], [-76.869092, 8.062695], [-76.912207, 8.033398], [-76.924658, 7.973193], [-76.866895, 7.917969], [-76.786572, 7.931592], [-76.742334, 8.002148], [-76.77207, 8.310547], [-76.818604, 8.464697], [-76.920459, 8.57373], [-76.887988, 8.619873], [-76.802246, 8.640674], [-76.689355, 8.694727], [-76.5, 8.829861745018183], [-76.5, 6.8], [-77.58244095266662, 6.8], [-77.602148, 6.837305]]]}}, {"type": "Feature", "properties": {"name": "Belize"}, "geometry": {"type": "MultiPolygon", "coordinates": [[[[-89.162354, 17.901953], [-89.133545, 17.970801], [-89.050439, 17.999707], [-88.897803, 17.914551], [-88.806348, 17.965527], [-88.586182, 18.290527], [-88.522998, 18.445898], [-88.461279, 18.476758], [-88.295654, 18.472412], [-88.349268, 18.358838], [-88.295654, 18.344092], [-88.247266, 18.354687], [-88.130273, 18.350732], [-88.085254, 18.226123], [-88.097217, 18.121631], [-88.207471, 17.846094], [-88.221436, 17.751367], [-88.271729, 17.609863], [-88.203467, 17.516602], [-88.267187, 17.392578], [-88.288818, 17.312695], [-88.293994, 17.192139], [-88.261816, 16.963037], [-88.313428, 16.632764], [-88.404541, 16.488623], [-88.461133, 16.433789], [-88.562305, 16.29043], [-88.695166, 16.247656], [-88.879102, 16.01665], [-88.911719, 15.956006], [-88.894043, 15.890625], [-89.2375, 15.894434], [-89.162354, 17.901953]]], [[[-87.998096, 17.906348], [-87.959033, 17.964014], [-87.89834, 18.154932], [-87.858936, 18.154053], [-87.848535, 18.140381], [-87.950586, 17.924951], [-87.998096, 17.906348]]], [[[-87.92998, 17.283008], [-87.934863, 17.322949], [-87.902832, 17.426465], [-87.83252, 17.501074], [-87.826416, 17.546289], [-87.788623, 17.524219], [-87.798145, 17.47959], [-87.85293, 17.422852], [-87.92998, 17.283008]]]]}}]}