{"type": "FeatureCollection", "features": [{"type": "Feature", "properties": {}, "geometry": {"type": "MultiLineString", "coordinates": [[[113.82228199981455, 22.2291739997803], [113.83292400044229, 22.182328999683648], [113.86254000012093, 22.16446299956783]], [[113.92644399999062, 22.47010800028403], [113.8682289998685, 22.425475999717662], [113.87016900029914, 22.36143900000991]], [[114.1651260000649, 22.55548999956386], [114.04093399980434, 22.50115600034917]], [[114.10933600025623, 22.147741000047176], [114.30726799981835, 22.147741000047176]], [[114.42078699982028, 22.56470700012801], [114.4547460001279, 22.546271999852934], [114.4547460001279, 22.502610999997728]], [[114.45231999976829, 22.148469000344164], [114.50325899980305, 22.148469000344164], [114.50253100040538, 22.23845999992909]], [[114.47512099993423, 22.42402100006916], [114.50239400038288, 22.355719999778216]]]}}, {"type": "Feature", "properties": {}, "geometry": {"type": "LineString", "coordinates": [[121.3313599996643, 31.505904999915856], [121.38235499958364, 31.545032000226684], [121.3139489998465, 31.585772000277643], [121.23413900031471, 31.670787999766446], [121.09529899994891, 31.763112999965017], [121.18020599980707, 31.827146000387643], [121.28979500023911, 31.871572000447486], [121.36726399973384, 31.84828400030642], [121.42332500034854, 31.770501999867463], [121.49598700029992, 31.7521669997073], [121.58992000000808, 31.70350300026331], [121.87521400022604, 31.63333100002569]]}}, {"type": "Feature", "properties": {}, "geometry": {"type": "LineString", "coordinates": [[73.88144899967165, 38.578732999828105], [73.89622500028361, 38.57927699973379], [73.91492500018865, 38.53866200005132], [74.00869000024335, 38.52505500028809], [74.03128099971843, 38.541729000293174], [74.08742499966405, 38.54215600019933], [74.06539199984098, 38.58557100040139], [74.08477799990482, 38.6110309999807], [74.11521100038743, 38.614529000313155], [74.14494300001951, 38.67684899998142], [74.22676100041991, 38.656315000037296], [74.374724999759, 38.654822999581825], [74.45284999982766, 38.63295700026538], [74.51164199957867, 38.63611600025325], [74.54421199968408, 38.607952000084765], [74.60631600018331, 38.59348700032484], [74.63763400010907, 38.59991499997733], [74.7148899996738, 38.54247999985216], [74.79010000021492, 38.53630800031402], [74.81884800033498, 38.49136399974884], [74.8600079999693, 38.484385999914025], [74.86552399983276, 38.40425099978387], [74.78799400022297, 38.33312999984969], [74.80418400039139, 38.286052999846106], [74.7904280000522, 38.27102300011143], [74.81417799991482, 38.215762999562855], [74.80364199967858, 38.15598300011544], [74.81890899955073, 38.10327500034106], [74.87670900032015, 38.02149199975605], [74.90886700031189, 38.030956000019444], [74.92310300030329, 38.01760500037051], [74.90814200015325, 37.95842399976783], [74.93438699996011, 37.87626599987607], [74.91477200012775, 37.845325000248636], [75.00537099987179, 37.77641699984474], [74.92035699957592, 37.717434000278956], [74.91814400004563, 37.684916999919665], [74.8902889997376, 37.66133899989501], [74.93773699976276, 37.55934499987188], [74.99772599985505, 37.530581999959395], [75.00643899966019, 37.508041000092135], [75.07533300031776, 37.51090600001197], [75.15004699956944, 37.41399799980792], [75.12290199962763, 37.38812299997653], [75.13694799985035, 37.35541199966411], [75.11585200006982, 37.31684099981237], [74.94004099989229, 37.28543899961022], [74.90834000029082, 37.23389400040787], [74.8790929996423, 37.231222000395064]]}}, {"type": "Feature", "properties": {}, "geometry": {"type": "MultiLineString", "coordinates": [[[121.26760100018612, 30.701630000424245], [121.31085200001985, 30.683345999918004], [121.53265399958252, 30.68640699988316]], [[121.57328800014113, 30.69061799982086], [121.66220100037594, 30.704894999904354]], [[121.78995500032306, 30.71966000000907], [121.86843100039039, 30.738410999568032], [121.91317699991862, 30.766122999576794]], [[122.0094680004479, 30.803624999594092], [122.13437699959889, 30.855187999626537]], [[122.36117500022613, 30.88207999959235], [122.50105299989605, 30.89243899976009]], [[122.63925200037954, 30.92236300015236], [122.78279099980489, 30.95611399986126]]]}}, {"type": "Feature", "properties": {}, "geometry": {"type": "MultiLineString", "coordinates": [[[109.81907600025727, 20.11681699980477], [110.01711999958837, 20.12933299961827]], [[110.11601999992314, 20.135727000400777], [110.25443300038273, 20.143788999862522], [110.36308299978066, 20.191832000346608]], [[110.43776700034687, 20.223362000156214], [110.60318799982639, 20.297481999894444]]]}}, {"type": "Feature", "properties": {}, "geometry": {"type": "MultiLineString", "coordinates": [[[117.18804200043803, 23.617240999772378], [117.19100200024218, 23.575511999978858], [117.27440600003695, 23.472782000189227]], [[117.37245199966014, 23.36983300019284], [117.41842700010602, 23.310616999774766]]]}}, {"type": "Feature", "properties": {}, "geometry": {"type": "MultiLineString", "coordinates": [[[108.3020169998847, 6.010893000311739], [108.26139800001772, 6.14178600022376], [108.20497899998094, 6.543492999902071], [108.20948800017112, 6.893292999872074], [108.23431400019103, 7.073834999685516]], [[109.30150600040167, 16.199544999801958], [109.58133699960291, 15.836320000367778], [109.66893799958905, 15.689271000056635], [109.77687800041946, 15.446795000388988], [109.85509500023414, 15.158953999627442]], [[110.32325000018744, 12.240499999775238], [110.32269299968226, 12.009797999877833], [110.27304099964249, 11.691591999970854], [110.21436299975272, 11.515563999678875], [110.0654139999562, 11.251521000094101]], [[111.7945629998826, 3.408477000213452], [111.99752800041693, 3.4442860003986198], [112.4091870003798, 3.5551179996959945], [112.6318279999623, 3.6386689999744135], [112.84947999970234, 3.7449570001654706]], [[115.54410600009192, 7.158346000167796], [116.24215699964589, 7.982450000367294]], [[118.53860500032056, 10.906544999552125], [118.62887600022725, 11.062263000337225], [118.79361699982474, 11.414320000068017], [118.92225600011443, 11.768633999559484], [118.9781419998535, 11.979657000270379]], [[119.0613099995569, 16.028913000134878], [119.05905199975007, 15.008850999673939]], [[119.9986880001511, 18.990285999799084], [119.64642299982165, 18.399200000179917], [119.47308300028033, 18.015576999878704]], [[121.91168999969375, 21.697515000417013], [121.17402599989998, 20.826548000190087]], [[122.81658799983643, 24.658201999922426], [122.65974500023162, 23.668602000382066]]]}}, {"type": "Feature", "properties": {}, "geometry": {"type": "LineString", "coordinates": [[120.50629500011428, 27.088596000105383], [120.40747800000975, 27.202865999666187], [120.40017699966882, 27.251148000379942], [120.42256200043607, 27.259912999885103], [120.40738700030988, 27.277711999609153]]}}]}